From: horizons@ssd.jpl.nasa.gov (Horizons Ephemeris System)
Subject: [Horizons] SMALL BODY #C(500@10)_T(Haneda-Campos (D/1978 R1)) (1/1)
Date: March 1, 2021 at 1:23:15 PM PST

Automated mail xmit by MAIL_REQUEST, PID= 2301 Mon Mar  1 13:23:15 2021
++++++++++++++++++++++++++++++++ (part 1 of 1)  +++++++++++++++++++++++++++++++
*******************************************************************************
JPL/HORIZONS              Haneda-Campos (D/1978 R1)        2021-Mar-01 13:23:15
Rec #:90001936 (+COV) Soln.date: 2014-Jun-13_19:42:23      # obs: 57 (122 days)

IAU76/J2000 helio. ecliptic osc. elements (au, days, deg., period=Julian yrs):

 EPOCH=  2443773.5 ! 1978-Sep-22.0000000 (TDB)    RMSW= n.a.
  EC= .6652319398949059   QR= 1.101417705291446   TP= 2443790.9916197206
  OM= 132.2535137676355   W= 240.4622187455944    IN= 5.94732961873238
  A= 3.290091966795389    MA= 357.1111696101766   ADIST= 5.478766228299332
  PER= 5.9678825990506    N= .165155106           ANGMOM= .023296723
  DAN= 2.72917            DDN= 1.38116            L= 12.5829258
  B= -5.1720948           MOID= .13492            TP= 1978-Oct-09.4916197206

Comet physical (GM= km^3/s^2; RAD= km):
  GM= n.a.                RAD= n.a.
  M1=  11.9     M2=  n.a.     k1=  17.    k2= n.a.     PHCOF= n.a.

COMET comments 
1: soln ref.= JPL#7, data arc: 1978-07-30 to 1978-11-29
2: k1=17.;
*******************************************************************************


*******************************************************************************
Ephemeris / MAIL_REQUEST Mon Mar  1 13:23:15 2021 Pasadena, USA  / Horizons
*******************************************************************************
Target body name: Haneda-Campos (D/1978 R1)       {source: JPL#7}
Center body name: Sun (10)                        {source: DE431}
Center-site name: BODY CENTER
*******************************************************************************
Start time      : A.D. 1990-Jan-01 00:00:00.0000 TDB
Stop  time      : A.D. 2020-Dec-31 00:00:00.0000 TDB
Step-size       : 10080 minutes
*******************************************************************************
Center geodetic : 0.00000000,0.00000000,0.0000000 {E-lon(deg),Lat(deg),Alt(km)}
Center cylindric: 0.00000000,0.00000000,0.0000000 {E-lon(deg),Dxy(km),Dz(km)}
Center radii    : 696000.0 x 696000.0 x 696000.0 k{Equator, meridian, pole}    
Small perturbers: Yes                             {source: SB431-N16}
Output units    : AU-D
Output type     : GEOMETRIC cartesian states
Output format   : 6 (LT, range, and range-rate)
Reference frame : Ecliptic of J2000.0
*******************************************************************************
Initial IAU76/J2000 heliocentric ecliptic osculating elements (au, days, deg.):
 EPOCH=  2443773.5 ! 1978-Sep-22.0000000 (TDB)    RMSW= n.a.                  
  EC= .6652319398949059   QR= 1.101417705291446   TP= 2443790.9916197206      
  OM= 132.2535137676355   W= 240.4622187455944    IN= 5.94732961873238        
 Equivalent ICRF heliocentric equatorial cartesian coordinates (au, au/d):
  X= 1.116169758037291E+00  Y=-8.417906215791610E-02  Z=-1.207388124911554E-01
 VX=-5.316451420862471E-04 VY= 1.966517303452499E-02 VZ= 6.981049046349283E-03
Comet physical (GM= km^3/s^2; RAD= km):                                        
  GM= n.a.                RAD= n.a.                                           
  M1=  11.9     M2=  n.a.     k1=  17.    k2= n.a.     PHCOF= n.a.            
*******************************************************************************
           JDTDB,            Calendar Date (TDB),                     LT,                     RG,                     RR,
**************************************************************************************************************************
$$SOE
2451042.500000000, A.D. 1998-Aug-17 00:00:00.0000,  2.043671365365401E-02,  3.538507278630556E+00,  5.697753848776436E-03,
2451049.500000000, A.D. 1998-Aug-24 00:00:00.0000,  2.066568033476493E-02,  3.578151630526146E+00,  5.629281770509826E-03,
2451056.500000000, A.D. 1998-Aug-31 00:00:00.0000,  2.089188831871682E-02,  3.617318328815476E+00,  5.561283303856317E-03,
2451063.500000000, A.D. 1998-Sep-07 00:00:00.0000,  2.111535696268960E-02,  3.656010725090355E+00,  5.493768362218426E-03,
2451070.500000000, A.D. 1998-Sep-14 00:00:00.0000,  2.133610599034940E-02,  3.694232234397707E+00,  5.426745653417498E-03,
2451077.500000000, A.D. 1998-Sep-21 00:00:00.0000,  2.155415547655733E-02,  3.731986332591985E+00,  5.360223559970962E-03,
2451084.500000000, A.D. 1998-Sep-28 00:00:00.0000,  2.176952578744400E-02,  3.769276545959395E+00,  5.294207825792519E-03,
2451091.500000000, A.D. 1998-Oct-05 00:00:00.0000,  2.198223746242201E-02,  3.806106430788983E+00,  5.228701450884375E-03,
2451098.500000000, A.D. 1998-Oct-12 00:00:00.0000,  2.219231112394383E-02,  3.842479557747712E+00,  5.163705666437987E-03,
2451105.500000000, A.D. 1998-Oct-19 00:00:00.0000,  2.239976741723151E-02,  3.878399501444968E+00,  5.099220414126574E-03,
2451112.500000000, A.D. 1998-Oct-26 00:00:00.0000,  2.260462696264876E-02,  3.913869832186049E+00,  5.035244547380432E-03,
2451119.500000000, A.D. 1998-Nov-02 00:00:00.0000,  2.280691031446484E-02,  3.948894108832358E+00,  4.971775962675488E-03,
2451126.500000000, A.D. 1998-Nov-09 00:00:00.0000,  2.300663792435468E-02,  3.983475872481639E+00,  4.908811701995313E-03,
2451133.500000000, A.D. 1998-Nov-16 00:00:00.0000,  2.320383010793118E-02,  4.017618640673224E+00,  4.846347986869746E-03,
2451140.500000000, A.D. 1998-Nov-23 00:00:00.0000,  2.339850700910125E-02,  4.051325901216474E+00,  4.784380044161374E-03,
2451147.500000000, A.D. 1998-Nov-30 00:00:00.0000,  2.359068855122428E-02,  4.084601103734136E+00,  4.722901678051447E-03,
2451154.500000000, A.D. 1998-Dec-07 00:00:00.0000,  2.378039438490362E-02,  4.117447650622704E+00,  4.661905924531366E-03,
2451161.500000000, A.D. 1998-Dec-14 00:00:00.0000,  2.396764390660121E-02,  4.149868900275462E+00,  4.601387454586007E-03,
2451168.500000000, A.D. 1998-Dec-21 00:00:00.0000,  2.415245632192333E-02,  4.181868178040050E+00,  4.541341661357460E-03,
2451175.500000000, A.D. 1998-Dec-28 00:00:00.0000,  2.433485062468292E-02,  4.213448772593232E+00,  4.481762577176088E-03,
2451182.500000000, A.D. 1999-Jan-04 00:00:00.0000,  2.451484554499878E-02,  4.244613926954552E+00,  4.422643270037009E-03,
2451189.500000000, A.D. 1999-Jan-11 00:00:00.0000,  2.469245952489891E-02,  4.275366834262170E+00,  4.363976483382543E-03,
2451196.500000000, A.D. 1999-Jan-18 00:00:00.0000,  2.486771071052577E-02,  4.305710636423257E+00,  4.305754852962886E-03,
2451203.500000000, A.D. 1999-Jan-25 00:00:00.0000,  2.504061694922719E-02,  4.335648423610299E+00,  4.247970967678898E-03,
2451210.500000000, A.D. 1999-Feb-01 00:00:00.0000,  2.521119578827930E-02,  4.365183234039975E+00,  4.190617397564783E-03,
2451217.500000000, A.D. 1999-Feb-08 00:00:00.0000,  2.537946447433808E-02,  4.394318053878200E+00,  4.133686697104746E-03,
2451224.500000000, A.D. 1999-Feb-15 00:00:00.0000,  2.554543995142527E-02,  4.423055816891392E+00,  4.077171306655224E-03,
2451231.500000000, A.D. 1999-Feb-22 00:00:00.0000,  2.570913884967717E-02,  4.451399402498395E+00,  4.021063159653916E-03,
2451238.500000000, A.D. 1999-Mar-01 00:00:00.0000,  2.587057745403324E-02,  4.479351630349069E+00,  3.965353261744083E-03,
2451245.500000000, A.D. 1999-Mar-08 00:00:00.0000,  2.602977168837582E-02,  4.506915257578172E+00,  3.910033224149619E-03,
2451252.500000000, A.D. 1999-Mar-15 00:00:00.0000,  2.618673718672787E-02,  4.534092991132868E+00,  3.855097026583109E-03,
2451259.500000000, A.D. 1999-Mar-22 00:00:00.0000,  2.634148935266638E-02,  4.560887498059834E+00,  3.800538837505482E-03,
2451266.500000000, A.D. 1999-Mar-29 00:00:00.0000,  2.649404333362483E-02,  4.587301401055877E+00,  3.746351867530914E-03,
2451273.500000000, A.D. 1999-Apr-05 00:00:00.0000,  2.664441399372980E-02,  4.613337273764737E+00,  3.692528998105924E-03,
2451280.500000000, A.D. 1999-Apr-12 00:00:00.0000,  2.679261591017292E-02,  4.638997640148898E+00,  3.639063185987775E-03,
2451287.500000000, A.D. 1999-Apr-19 00:00:00.0000,  2.693866337882197E-02,  4.664284975461141E+00,  3.585947562608735E-03,
2451294.500000000, A.D. 1999-Apr-26 00:00:00.0000,  2.708257042160611E-02,  4.689201707523236E+00,  3.533175444159570E-03,
2451301.500000000, A.D. 1999-May-03 00:00:00.0000,  2.722435079380324E-02,  4.713750217987727E+00,  3.480740319506889E-03,
2451308.500000000, A.D. 1999-May-10 00:00:00.0000,  2.736401799019051E-02,  4.737932843402842E+00,  3.428635795816746E-03,
2451315.500000000, A.D. 1999-May-17 00:00:00.0000,  2.750158524620678E-02,  4.761751875413780E+00,  3.376855370957635E-03,
2451322.500000000, A.D. 1999-May-24 00:00:00.0000,  2.763706552263703E-02,  4.785209558110900E+00,  3.325391840598698E-03,
2451329.500000000, A.D. 1999-May-31 00:00:00.0000,  2.777047147052194E-02,  4.808308081953992E+00,  3.274237277357937E-03,
2451336.500000000, A.D. 1999-Jun-07 00:00:00.0000,  2.790181544396324E-02,  4.831049585989462E+00,  3.223385362805661E-03,
2451343.500000000, A.D. 1999-Jun-14 00:00:00.0000,  2.803110958689112E-02,  4.853436172873640E+00,  3.172831628274067E-03,
2451350.500000000, A.D. 1999-Jun-21 00:00:00.0000,  2.815836585562465E-02,  4.875469912779002E+00,  3.122571006090830E-03,
2451357.500000000, A.D. 1999-Jun-28 00:00:00.0000,  2.828359598298640E-02,  4.897152837180799E+00,  3.072597616604343E-03,
2451364.500000000, A.D. 1999-Jul-05 00:00:00.0000,  2.840681145830963E-02,  4.918486935395423E+00,  3.022905364769226E-03,
2451371.500000000, A.D. 1999-Jul-12 00:00:00.0000,  2.852802352477508E-02,  4.939474154119267E+00,  2.973488186665919E-03,
2451378.500000000, A.D. 1999-Jul-19 00:00:00.0000,  2.864724318209079E-02,  4.960116397892746E+00,  2.924340104952615E-03,
2451385.500000000, A.D. 1999-Jul-26 00:00:00.0000,  2.876448119025008E-02,  4.980415529750948E+00,  2.875455238866222E-03,
